******************************************************************************* Revised: Dec 12, 2013               Neptune                                899  PHYSICAL DATA (update 2009-May-26):  Mass (10^24 kg)       =   102.41        Density (g/cm^3)       =  1.638  Equat. radius (1 bar) = 24766+-15 km    Polar radius (km)      = 24342+-30  Volumetric mean radius= 24624+-21 km    Flattening             =  0.0171   Rotation period       = 16.11+-0.01 hr  Rot. rate(10^-4 rad/s) =  1.083     m = w^2a^3/GM         =  0.02609        Hydrostatic flat., fh  =  0.01804  Inferred rot. period  = 16.7+-1.4 hr    ks = 3*J2/m            =  0.407  Mom. of inert. I/MRo^2=                 I/MRo^2 (upper bound)  =  0.239   Rocky core mass (Mc/M)=                 Y factor (He/H ratio)  =  0.235+-.040  GM (km^3/s^2)         = 6,835,107       GM 1-sigma (km^3/s^2)  = +-15   Equ. grav, ge (m/s^2) = 11.15           Pol. grav, gp (m/s^2)  = 11.41+-0.03  Geometric albedo      =  0.41           Visual magnitude V(1,0)= -6.87  Vis. mag. (opposition)= +7.84           Obliquity to orbit     = 29.56 deg  Sidereal orbit period = 164.79132 yr    Sidereal orbit period  = 60190.029 d  Mean daily motion     = 0.006020076dg/d Mean orbit velocity    = 5.4778 km/s   Atmos. temp. (1 bar)  =  72+-2 K        Heat flow/mass (x10^7) =  2 erg/gm*s  Planetary Solar Const =   1.47 W/m^2    Dipole tilt/offset     = 47deg/0.55Rp   Escape velocity (km/s)=  23.5           Mag.dip.mom(gauss-Rp^3)= 0.133  Aroche(ice)/Rp        =  2.98           Hill's sphere rad., Rp = 4700*******************************************************************************  *******************************************************************************Ephemeris / WWW_USER Thu Mar 16 13:07:47 2017 Pasadena, USA      / Horizons    *******************************************************************************Target body name: Neptune (899)                   {source: nep081xl}Center body name: Solar System Barycenter (0)     {source: DE431mx}Center-site name: BODY CENTER*******************************************************************************Start time      : A.D. 2017-Mar-16 00:00:00.0000 TDBStop  time      : A.D. 2017-Apr-15 00:00:00.0000 TDBStep-size       : 1440 minutes*******************************************************************************Center geodetic : 0.00000000,0.00000000,0.0000000 {E-lon(deg),Lat(deg),Alt(km)}Center cylindric: 0.00000000,0.00000000,0.0000000 {E-lon(deg),Dxy(km),Dz(km)}Center radii    : (undefined)                                                  Output units    : AU-D                                                         Output type     : GEOMETRIC cartesian statesOutput format   : 3 (position, velocity, LT, range, range-rate)Reference frame : ICRF/J2000.0                                                 Coordinate systm: Ecliptic and Mean Equinox of Reference Epoch                 *******************************************************************************JDTDB   X     Y     Z   VX    VY    VZ   LT    RG    RR*******************************************************************************$$SOE2457828.500000000 = A.D. 2017-Mar-16 00:00:00.0000 TDB    2.841221822673949E+01 -9.468008842306654E+00 -4.598129041670024E-01   9.711403807320941E-04  2.996820640231039E-03 -8.375523161697080E-05   1.729870196188138E-01  2.995177396931113E+01 -2.481189123648906E-052457829.500000000 = A.D. 2017-Mar-17 00:00:00.0000 TDB    2.841318939303330E+01 -9.465011769273268E+00 -4.598966149083528E-01   9.712339521976098E-04  2.997279224271655E-03 -8.374194402294754E-05   1.729868769520943E-01  2.995174926733438E+01 -2.453667268823053E-052457830.500000000 = A.D. 2017-Mar-18 00:00:00.0000 TDB    2.841416069126698E+01 -9.462014424857713E+00 -4.599805161304409E-01   9.713177823068732E-04  2.997330968422821E-03 -8.409820524825187E-05   1.729867364451910E-01  2.995172493931821E+01 -2.413636530603190E-052457831.500000000 = A.D. 2017-Mar-19 00:00:00.0000 TDB    2.841513188233967E+01 -9.459017229399084E+00 -4.600648093759571E-01   9.709795972756975E-04  2.997030510215546E-03 -8.444886078676571E-05   1.729865975731370E-01  2.995170089436744E+01 -2.402527906550415E-052457832.500000000 = A.D. 2017-Mar-20 00:00:00.0000 TDB    2.841610251316177E+01 -9.456020340252339E+00 -4.601492839087075E-01   9.702452487779630E-04  2.996798105727910E-03 -8.442457693637976E-05   1.729864581211902E-01  2.995167674901134E+01 -2.431741931150917E-052457833.500000000 = A.D. 2017-Mar-21 00:00:00.0000 TDB    2.841707238704518E+01 -9.453023488443268E+00 -4.602335354953130E-01   9.695518954690667E-04  2.996983345753009E-03 -8.404528946199681E-05   1.729863164845763E-01  2.995165222539185E+01 -2.470805613845076E-052457834.500000000 = A.D. 2017-Mar-22 00:00:00.0000 TDB    2.841804176791397E+01 -9.450026257951361E+00 -4.603173861096612E-01   9.692941245213551E-04  2.997502164562150E-03 -8.369953513997255E-05   1.729861733351529E-01  2.995162743983752E+01 -2.479013528043179E-052457835.500000000 = A.D. 2017-Mar-23 00:00:00.0000 TDB    2.841901110626624E+01 -9.447028517683961E+00 -4.604010687768234E-01   9.694142585199833E-04  2.997924119743549E-03 -8.374103237166192E-05   1.729860309238847E-01  2.995160278209080E+01 -2.447700772967000E-052457836.500000000 = A.D. 2017-Mar-24 00:00:00.0000 TDB    2.841998057142785E+01 -9.444030557617360E+00 -4.604849856242147E-01   9.694622493945789E-04  2.997919307846267E-03 -8.412141917945504E-05   1.729858907433383E-01  2.995157851058158E+01 -2.409244004579177E-052457837.500000000 = A.D. 2017-Mar-25 00:00:00.0000 TDB    2.842094987575265E+01 -9.441032787758299E+00 -4.605692903648713E-01   9.690629635544620E-04  2.997600877962273E-03 -8.444048980341771E-05   1.729857519776438E-01  2.995155448404639E+01 -2.403439740470948E-052457838.500000000 = A.D. 2017-Mar-26 00:00:00.0000 TDB    2.842191857326043E+01 -9.438035312507267E+00 -4.606537287144398E-01   9.683056161189422E-04  2.997407542196611E-03 -8.436169468608955E-05   1.729856123495937E-01  2.995153030819893E+01 -2.436180445999860E-052457839.500000000 = A.D. 2017-Mar-27 00:00:00.0000 TDB    2.842288652265016E+01 -9.435037822288439E+00 -4.607379023871571E-01   9.676511760090448E-04  2.997648125706315E-03 -8.396156242645418E-05   1.729854704852933E-01  2.995150574515674E+01 -2.473330078583285E-052457840.500000000 = A.D. 2017-Mar-28 00:00:00.0000 TDB    2.842385403400328E+01 -9.432039914991003E+00 -4.608216826275208E-01   9.674537562457301E-04  2.998180896855326E-03 -8.365026703691064E-05   1.729853273410822E-01  2.995148096050490E+01 -2.476170321914681E-052457841.500000000 = A.D. 2017-Mar-29 00:00:00.0000 TDB    2.842482154682282E+01 -9.429041513500840E+00 -4.609053438967999E-01   9.675929479028919E-04  2.998560722647737E-03 -8.374574267807273E-05   1.729851852105778E-01  2.995145635137092E+01 -2.441610156069262E-052457842.500000000 = A.D. 2017-Mar-30 00:00:00.0000 TDB    2.842578917370308E+01 -9.426042945798374E+00 -4.609892789016417E-01   9.675988481428672E-04  2.998501237764073E-03 -8.414357721101467E-05   1.729850453428532E-01  2.995143213402512E+01 -2.405398472968180E-052457843.500000000 = A.D. 2017-Mar-31 00:00:00.0000 TDB    2.842675658343440E+01 -9.423044604462573E+00 -4.610735908610426E-01   9.671399524057107E-04  2.998172147194431E-03 -8.442544618240963E-05   1.729849066452563E-01  2.995140811928066E+01 -2.405000523577763E-052457844.500000000 = A.D. 2017-Apr-01 00:00:00.0000 TDB    2.842772334486519E+01 -9.420046539130526E+00 -4.611579863476090E-01   9.663672927047167E-04  2.998023030014934E-03 -8.429341546038939E-05   1.729847668179167E-01  2.995138390892732E+01 -2.440694700707253E-052457845.500000000 = A.D. 2017-Apr-02 00:00:00.0000 TDB    2.842868937452306E+01 -9.417048404980036E+00 -4.612420799232562E-01   9.657576667480961E-04  2.998316597443419E-03 -8.387928260491094E-05   1.729846247419671E-01  2.995135930923920E+01 -2.475277165581194E-052457846.500000000 = A.D. 2017-Apr-03 00:00:00.0000 TDB    2.842965502327720E+01 -9.414049820769518E+00 -4.613257943350870E-01   9.656185866682807E-04  2.998855902318172E-03 -8.360775193721159E-05   1.729844816416500E-01  2.995133453218738E+01 -2.472695009023341E-052457847.500000000 = A.D. 2017-Apr-04 00:00:00.0000 TDB    2.843062071202748E+01 -9.411050764702317E+00 -4.614094407260804E-01   9.657690007111260E-04  2.999188823026774E-03 -8.375546484731392E-05   1.729843398131337E-01  2.995130997534099E+01 -2.435487964261190E-052457848.500000000 = A.D. 2017-Apr-05 00:00:00.0000 TDB    2.843158649469197E+01 -9.408051597088901E+00 -4.614933955776329E-01   9.657272863674842E-04  2.999077490265660E-03 -8.416376718408944E-05   1.729842002400263E-01  2.995128580900659E+01 -2.402153554713778E-052457849.500000000 = A.D. 2017-Apr-06 00:00:00.0000 TDB    2.843255200223301E+01 -9.405052686287876E+00 -4.615777098265963E-01   9.652113027263822E-04  2.998745231535726E-03 -8.440346249770879E-05   1.729840615718667E-01  2.995126179935904E+01 -2.407169305072160E-052457850.500000000 = A.D. 2017-Apr-07 00:00:00.0000 TDB    2.843351682578882E+01 -9.402054026310404E+00 -4.616620559841614E-01   9.644312811411189E-04  2.998644714012305E-03 -8.422039481267645E-05   1.729839215263338E-01  2.995123755122668E+01 -2.445191739850904E-052457851.500000000 = A.D. 2017-Apr-08 00:00:00.0000 TDB    2.843448094115766E+01 -9.399055243053779E+00 -4.617460681390791E-01   9.638715936661887E-04  2.998987985964813E-03 -8.379934810222591E-05   1.729837792592950E-01  2.995121291845252E+01 -2.476598447061716E-052457852.500000000 = A.D. 2017-Apr-09 00:00:00.0000 TDB    2.843544473391906E+01 -9.396055982745164E+00 -4.618297218798736E-01   9.637878316493454E-04  2.999526289266170E-03 -8.357219939996581E-05   1.729836362416135E-01  2.995118815570858E+01 -2.468633912359340E-052457853.500000000 = A.D. 2017-Apr-10 00:00:00.0000 TDB    2.843640859908608E+01 -9.393056279285624E+00 -4.619133596411981E-01   9.639414379102856E-04  2.999808337894529E-03 -8.376950265588792E-05   1.729834947318480E-01  2.995116365405222E+01 -2.429427139804753E-052457854.500000000 = A.D. 2017-Apr-11 00:00:00.0000 TDB    2.843737253097068E+01 -9.390056519083645E+00 -4.619973351566889E-01   9.638474087476976E-04  2.999648876865727E-03 -8.418111108563827E-05   1.729833554308020E-01  2.995113953482376E+01 -2.399552163209675E-052457855.500000000 = A.D. 2017-Apr-12 00:00:00.0000 TDB    2.843833612909715E+01 -9.387057039901896E+00 -4.620816461971206E-01   9.632778454362442E-04  2.999320994576480E-03 -8.437439056479802E-05   1.729832167536935E-01  2.995111552362676E+01 -2.409894365963947E-052457856.500000000 = A.D. 2017-Apr-13 00:00:00.0000 TDB    2.843929901396925E+01 -9.384057780226772E+00 -4.621659368858799E-01   9.624985379414287E-04  2.999272614084123E-03 -8.414336819238993E-05   1.729830764756834E-01  2.995109123524223E+01 -2.449578827819244E-052457857.500000000 = A.D. 2017-Apr-14 00:00:00.0000 TDB    2.844026122107034E+01 -9.381058343147568E+00 -4.622498671779487E-01   9.619930466139917E-04  2.999661446931633E-03 -8.372261406873698E-05   1.729829340422775E-01  2.995106657366248E+01 -2.477256480142408E-052457858.500000000 = A.D. 2017-Apr-15 00:00:00.0000 TDB    2.844122316401455E+01 -9.378058408484216E+00 -4.623334659276938E-01   9.619606217293361E-04  3.000191226688894E-03 -8.354369514124685E-05   1.729827911453614E-01  2.995104183182843E+01 -2.464043825002440E-05$$EOE*******************************************************************************Coordinate system description:  Ecliptic and Mean Equinox of Reference Epoch    Reference epoch: J2000.0    XY-plane: plane of the Earth's orbit at the reference epoch              Note: obliquity of 84381.448 arcseconds wrt ICRF equator (IAU76)    X-axis  : out along ascending node of instantaneous plane of the Earth's              orbit and the Earth's mean equator at the reference epoch    Z-axis  : perpendicular to the xy-plane in the directional (+ or -) sense              of Earth's north pole at the reference epoch.  Symbol meaning [1 au= 149597870.700 km, 1 day= 86400.0 s]:    JDTDB    Julian Day Number, Barycentric Dynamical Time      X      X-component of position vector (au)                                     Y      Y-component of position vector (au)                                     Z      Z-component of position vector (au)                                     VX     X-component of velocity vector (au/day)                                 VY     Y-component of velocity vector (au/day)                                 VZ     Z-component of velocity vector (au/day)                                 LT     One-way down-leg Newtonian light-time (day)                             RG     Range; distance from coordinate center (au)                             RR     Range-rate; radial velocity wrt coord. center (au/day)            Geometric states/elements have no aberrations applied. Computations by ...     Solar System Dynamics Group, Horizons On-Line Ephemeris System     4800 Oak Grove Drive, Jet Propulsion Laboratory     Pasadena, CA  91109   USA     Information: http://ssd.jpl.nasa.gov/     Connect    : telnet://ssd.jpl.nasa.gov:6775  (via browser)                  http://ssd.jpl.nasa.gov/?horizons                  telnet ssd.jpl.nasa.gov 6775    (via command-line)     Author     : Jon.D.Giorgini@jpl.nasa.gov*******************************************************************************